[
  {
    "COMMENT": "GENERATED VIA SPACETRACK.ORG API",
    "ORIGINATOR": "18 SPCS",
    "NORAD_CAT_ID": "48621",
    "OBJECT_NAME": "HAIYANG 2D",
    "OBJECT_TYPE": "PAYLOAD",
    "CLASSIFICATION_TYPE": "U",
    "INTLDES": "21043A",
    "EPOCH": "2022-01-08 19:18:43",
    "EPOCH_MICROSECONDS": "359264",
    "MEAN_MOTION": "13.83375908",
    "ECCENTRICITY": "0.0007478",
    "INCLINATION": "65.9981",
    "RA_OF_ASC_NODE": "18.8951",
    "ARG_OF_PERICENTER": "276.9416",
    "MEAN_ANOMALY": "83.08",
    "EPHEMERIS_TYPE": "0",
    "ELEMENT_SET_NO": "999",
    "REV_AT_EPOCH": "3245",
    "BSTAR": "0.00004545",
    "MEAN_MOTION_DOT": "-0.00000031",
    "MEAN_MOTION_DDOT": "0",
    "FILE": "3267465",
    "TLE_LINE0": "0 HAIYANG 2D",
    "TLE_LINE1": "1 48621U 21043A   22008.80466851 -.00000031  00000-0  45450-4 0  9998",
    "TLE_LINE2": "2 48621  65.9981  18.8951 0007478 276.9416  83.0800 13.83375908 32454",
    "OBJECT_ID": "2021-043A",
    "OBJECT_NUMBER": "48621",
    "SEMIMAJOR_AXIS": "7330.074",
    "PERIOD": "104.093",
    "APOGEE": "957.421",
    "PERIGEE": "946.458",
    "DECAYED": "0"
  },
  {
    "COMMENT": "GENERATED VIA SPACETRACK.ORG API",
    "ORIGINATOR": "18 SPCS",
    "NORAD_CAT_ID": "48621",
    "OBJECT_NAME": "HAIYANG 2D",
    "OBJECT_TYPE": "PAYLOAD",
    "CLASSIFICATION_TYPE": "U",
    "INTLDES": "21043A",
    "EPOCH": "2022-01-08 19:18:43",
    "EPOCH_MICROSECONDS": "359264",
    "MEAN_MOTION": "13.83375908",
    "ECCENTRICITY": "0.0007478",
    "INCLINATION": "65.9981",
    "RA_OF_ASC_NODE": "18.8951",
    "ARG_OF_PERICENTER": "276.9416",
    "MEAN_ANOMALY": "83.08",
    "EPHEMERIS_TYPE": "0",
    "ELEMENT_SET_NO": "999",
    "REV_AT_EPOCH": "3245",
    "BSTAR": "0.00004545",
    "MEAN_MOTION_DOT": "-0.00000031",
    "MEAN_MOTION_DDOT": "0",
    "FILE": "3267514",
    "TLE_LINE0": "0 HAIYANG 2D",
    "TLE_LINE1": "1 48621U 21043A   22008.80466851 -.00000031  00000-0  45450-4 0  9998",
    "TLE_LINE2": "2 48621  65.9981  18.8951 0007478 276.9416  83.0800 13.83375908 32454",
    "OBJECT_ID": "2021-043A",
    "OBJECT_NUMBER": "48621",
    "SEMIMAJOR_AXIS": "7330.074",
    "PERIOD": "104.093",
    "APOGEE": "957.421",
    "PERIGEE": "946.458",
    "DECAYED": "0"
  },
  {
    "COMMENT": "GENERATED VIA SPACETRACK.ORG API",
    "ORIGINATOR": "18 SPCS",
    "NORAD_CAT_ID": "48621",
    "OBJECT_NAME": "HAIYANG 2D",
    "OBJECT_TYPE": "PAYLOAD",
    "CLASSIFICATION_TYPE": "U",
    "INTLDES": "21043A",
    "EPOCH": "2022-01-09 03:59:14",
    "EPOCH_MICROSECONDS": "661024",
    "MEAN_MOTION": "13.83375835",
    "ECCENTRICITY": "0.0007466",
    "INCLINATION": "65.9982",
    "RA_OF_ASC_NODE": "17.9951",
    "ARG_OF_PERICENTER": "276.9839",
    "MEAN_ANOMALY": "83.0367",
    "EPHEMERIS_TYPE": "0",
    "ELEMENT_SET_NO": "999",
    "REV_AT_EPOCH": "3250",
    "BSTAR": "0.000037305",
    "MEAN_MOTION_DOT": "-0.0000004",
    "MEAN_MOTION_DDOT": "0",
    "FILE": "3267753",
    "TLE_LINE0": "0 HAIYANG 2D",
    "TLE_LINE1": "1 48621U 21043A   22009.16614191 -.00000040  00000-0  37305-4 0  9990",
    "TLE_LINE2": "2 48621  65.9982  17.9951 0007466 276.9839  83.0367 13.83375835 32504",
    "OBJECT_ID": "2021-043A",
    "OBJECT_NUMBER": "48621",
    "SEMIMAJOR_AXIS": "7330.074",
    "PERIOD": "104.093",
    "APOGEE": "957.412",
    "PERIGEE": "946.467",
    "DECAYED": "0"
  },
  {
    "COMMENT": "GENERATED VIA SPACETRACK.ORG API",
    "ORIGINATOR": "18 SPCS",
    "NORAD_CAT_ID": "48621",
    "OBJECT_NAME": "HAIYANG 2D",
    "OBJECT_TYPE": "PAYLOAD",
    "CLASSIFICATION_TYPE": "U",
    "INTLDES": "21043A",
    "EPOCH": "2022-01-09 09:11:33",
    "EPOCH_MICROSECONDS": "461088",
    "MEAN_MOTION": "13.8337588",
    "ECCENTRICITY": "0.0007479",
    "INCLINATION": "65.9981",
    "RA_OF_ASC_NODE": "17.455",
    "ARG_OF_PERICENTER": "276.953",
    "MEAN_ANOMALY": "83.0689",
    "EPHEMERIS_TYPE": "0",
    "ELEMENT_SET_NO": "999",
    "REV_AT_EPOCH": "3253",
    "BSTAR": "0.000040862",
    "MEAN_MOTION_DOT": "-0.00000036",
    "MEAN_MOTION_DDOT": "0",
    "FILE": "3268002",
    "TLE_LINE0": "0 HAIYANG 2D",
    "TLE_LINE1": "1 48621U 21043A   22009.38302617 -.00000036  00000-0  40862-4 0  9998",
    "TLE_LINE2": "2 48621  65.9981  17.4550 0007479 276.9530  83.0689 13.83375880 32535",
    "OBJECT_ID": "2021-043A",
    "OBJECT_NUMBER": "48621",
    "SEMIMAJOR_AXIS": "7330.074",
    "PERIOD": "104.093",
    "APOGEE": "957.421",
    "PERIGEE": "946.457",
    "DECAYED": "0"
  },
  {
    "COMMENT": "GENERATED VIA SPACETRACK.ORG API",
    "ORIGINATOR": "18 SPCS",
    "NORAD_CAT_ID": "48621",
    "OBJECT_NAME": "HAIYANG 2D",
    "OBJECT_TYPE": "PAYLOAD",
    "CLASSIFICATION_TYPE": "U",
    "INTLDES": "21043A",
    "EPOCH": "2022-01-09 12:39:45",
    "EPOCH_MICROSECONDS": "978336",
    "MEAN_MOTION": "13.83375925",
    "ECCENTRICITY": "0.0007468",
    "INCLINATION": "65.9982",
    "RA_OF_ASC_NODE": "17.0951",
    "ARG_OF_PERICENTER": "276.9491",
    "MEAN_ANOMALY": "83.073",
    "EPHEMERIS_TYPE": "0",
    "ELEMENT_SET_NO": "999",
    "REV_AT_EPOCH": "3255",
    "BSTAR": "0.000042629",
    "MEAN_MOTION_DOT": "-0.00000034",
    "MEAN_MOTION_DDOT": "0",
    "FILE": "3268062",
    "TLE_LINE0": "0 HAIYANG 2D",
    "TLE_LINE1": "1 48621U 21043A   22009.52761549 -.00000034  00000-0  42629-4 0  9998",
    "TLE_LINE2": "2 48621  65.9982  17.0951 0007468 276.9491  83.0730 13.83375925 32550",
    "OBJECT_ID": "2021-043A",
    "OBJECT_NUMBER": "48621",
    "SEMIMAJOR_AXIS": "7330.074",
    "PERIOD": "104.093",
    "APOGEE": "957.413",
    "PERIGEE": "946.465",
    "DECAYED": "0"
  },
  {
    "COMMENT": "GENERATED VIA SPACETRACK.ORG API",
    "ORIGINATOR": "18 SPCS",
    "NORAD_CAT_ID": "48621",
    "OBJECT_NAME": "HAIYANG 2D",
    "OBJECT_TYPE": "PAYLOAD",
    "CLASSIFICATION_TYPE": "U",
    "INTLDES": "21043A",
    "EPOCH": "2022-01-09 17:52:04",
    "EPOCH_MICROSECONDS": "753344",
    "MEAN_MOTION": "13.83375868",
    "ECCENTRICITY": "0.0007504",
    "INCLINATION": "65.9981",
    "RA_OF_ASC_NODE": "16.5552",
    "ARG_OF_PERICENTER": "276.9873",
    "MEAN_ANOMALY": "83.0338",
    "EPHEMERIS_TYPE": "0",
    "ELEMENT_SET_NO": "999",
    "REV_AT_EPOCH": "3258",
    "BSTAR": "0.000036943",
    "MEAN_MOTION_DOT": "-0.00000041",
    "MEAN_MOTION_DDOT": "0",
    "FILE": "3268256",
    "TLE_LINE0": "0 HAIYANG 2D",
    "TLE_LINE1": "1 48621U 21043A   22009.74449946 -.00000041  00000-0  36943-4 0  9996",
    "TLE_LINE2": "2 48621  65.9981  16.5552 0007504 276.9873  83.0338 13.83375868 32588",
    "OBJECT_ID": "2021-043A",
    "OBJECT_NUMBER": "48621",
    "SEMIMAJOR_AXIS": "7330.074",
    "PERIOD": "104.093",
    "APOGEE": "957.440",
    "PERIGEE": "946.439",
    "DECAYED": "0"
  },
  {
    "COMMENT": "GENERATED VIA SPACETRACK.ORG API",
    "ORIGINATOR": "18 SPCS",
    "NORAD_CAT_ID": "48621",
    "OBJECT_NAME": "HAIYANG 2D",
    "OBJECT_TYPE": "PAYLOAD",
    "CLASSIFICATION_TYPE": "U",
    "INTLDES": "21043A",
    "EPOCH": "2022-01-09 17:52:04",
    "EPOCH_MICROSECONDS": "753344",
    "MEAN_MOTION": "13.83375868",
    "ECCENTRICITY": "0.0007504",
    "INCLINATION": "65.9981",
    "RA_OF_ASC_NODE": "16.5552",
    "ARG_OF_PERICENTER": "276.9873",
    "MEAN_ANOMALY": "83.0338",
    "EPHEMERIS_TYPE": "0",
    "ELEMENT_SET_NO": "999",
    "REV_AT_EPOCH": "3258",
    "BSTAR": "0.000036943",
    "MEAN_MOTION_DOT": "-0.00000041",
    "MEAN_MOTION_DDOT": "0",
    "FILE": "3268323",
    "TLE_LINE0": "0 HAIYANG 2D",
    "TLE_LINE1": "1 48621U 21043A   22009.74449946 -.00000041  00000-0  36943-4 0  9996",
    "TLE_LINE2": "2 48621  65.9981  16.5552 0007504 276.9873  83.0338 13.83375868 32588",
    "OBJECT_ID": "2021-043A",
    "OBJECT_NUMBER": "48621",
    "SEMIMAJOR_AXIS": "7330.074",
    "PERIOD": "104.093",
    "APOGEE": "957.440",
    "PERIGEE": "946.439",
    "DECAYED": "0"
  },
  {
    "COMMENT": "GENERATED VIA SPACETRACK.ORG API",
    "ORIGINATOR": "18 SPCS",
    "NORAD_CAT_ID": "48621",
    "OBJECT_NAME": "HAIYANG 2D",
    "OBJECT_TYPE": "PAYLOAD",
    "CLASSIFICATION_TYPE": "U",
    "INTLDES": "21043A",
    "EPOCH": "2022-01-10 02:32:36",
    "EPOCH_MICROSECONDS": "49920",
    "MEAN_MOTION": "13.83375812",
    "ECCENTRICITY": "0.0007504",
    "INCLINATION": "65.9982",
    "RA_OF_ASC_NODE": "15.6553",
    "ARG_OF_PERICENTER": "277.061",
    "MEAN_ANOMALY": "82.9592",
    "EPHEMERIS_TYPE": "0",
    "ELEMENT_SET_NO": "999",
    "REV_AT_EPOCH": "3263",
    "BSTAR": "0.000029381",
    "MEAN_MOTION_DOT": "-0.00000049",
    "MEAN_MOTION_DDOT": "0",
    "FILE": "3268506",
    "TLE_LINE0": "0 HAIYANG 2D",
    "TLE_LINE1": "1 48621U 21043A   22010.10597280 -.00000049  00000-0  29381-4 0  9999",
    "TLE_LINE2": "2 48621  65.9982  15.6553 0007504 277.0610  82.9592 13.83375812 32636",
    "OBJECT_ID": "2021-043A",
    "OBJECT_NUMBER": "48621",
    "SEMIMAJOR_AXIS": "7330.075",
    "PERIOD": "104.093",
    "APOGEE": "957.440",
    "PERIGEE": "946.439",
    "DECAYED": "0"
  },
  {
    "COMMENT": "GENERATED VIA SPACETRACK.ORG API",
    "ORIGINATOR": "18 SPCS",
    "NORAD_CAT_ID": "48621",
    "OBJECT_NAME": "HAIYANG 2D",
    "OBJECT_TYPE": "PAYLOAD",
    "CLASSIFICATION_TYPE": "U",
    "INTLDES": "21043A",
    "EPOCH": "2022-01-10 11:13:07",
    "EPOCH_MICROSECONDS": "378464",
    "MEAN_MOTION": "13.83375841",
    "ECCENTRICITY": "0.000751",
    "INCLINATION": "65.9983",
    "RA_OF_ASC_NODE": "14.7555",
    "ARG_OF_PERICENTER": "277.0239",
    "MEAN_ANOMALY": "82.9974",
    "EPHEMERIS_TYPE": "0",
    "ELEMENT_SET_NO": "999",
    "REV_AT_EPOCH": "3268",
    "BSTAR": "0.000030971",
    "MEAN_MOTION_DOT": "-0.00000047",
    "MEAN_MOTION_DDOT": "0",
    "FILE": "3268784",
    "TLE_LINE0": "0 HAIYANG 2D",
    "TLE_LINE1": "1 48621U 21043A   22010.46744651 -.00000047  00000-0  30971-4 0  9999",
    "TLE_LINE2": "2 48621  65.9983  14.7555 0007510 277.0239  82.9974 13.83375841 32684",
    "OBJECT_ID": "2021-043A",
    "OBJECT_NUMBER": "48621",
    "SEMIMAJOR_AXIS": "7330.074",
    "PERIOD": "104.093",
    "APOGEE": "957.444",
    "PERIGEE": "946.435",
    "DECAYED": "0"
  }
]